[{"OBJECT_NAME":"GAOFEN-5 02","OBJECT_ID":"2021-079A","EPOCH":"2026-03-09T22:28:30.715104","MEAN_MOTION":14.5772301,"ECCENTRICITY":3.379e-5,"INCLINATION":98.2675,"RA_OF_ASC_NODE":143.9335,"ARG_OF_PERICENTER":339.1436,"MEAN_ANOMALY":20.9749,"EPHEMERIS_TYPE":0,"CLASSIFICATION_TYPE":"U","NORAD_CAT_ID":49122,"ELEMENT_SET_NO":999,"REV_AT_EPOCH":23962,"BSTAR":9.830729e-5,"MEAN_MOTION_DOT":4.03e-6,"MEAN_MOTION_DDOT":0},{"OBJECT_NAME":"FENGYUN 1C DEB","OBJECT_ID":"1999-025CDT","EPOCH":"2026-03-05T05:33:19.841760","MEAN_MOTION":14.73153976,"ECCENTRICITY":0.0095719,"INCLINATION":99.0495,"RA_OF_ASC_NODE":350.4422,"ARG_OF_PERICENTER":227.7985,"MEAN_ANOMALY":131.5066,"EPHEMERIS_TYPE":0,"CLASSIFICATION_TYPE":"U","NORAD_CAT_ID":31720,"ELEMENT_SET_NO":999,"REV_AT_EPOCH":99450,"BSTAR":0.0009974,"MEAN_MOTION_DOT":6.852e-5,"MEAN_MOTION_DDOT":0}]
